CCSDS_OMM_VERS = 2.0
CREATION_DATE  = 
ORIGINATOR     = 

OBJECT_NAME    = SDA-1669
OBJECT_ID      = 2025-230F
CENTER_NAME    = EARTH
REF_FRAME      = TEME
TIME_SYSTEM    = UTC
MEAN_ELEMENT_THEORY = SGP/SGP4

EPOCH          = 2025-10-29T10:34:36.804000
MEAN_MOTION    = 13.85233304
ECCENTRICITY   = .0005063
INCLINATION    = 81.3006
RA_OF_ASC_NODE = 65.6818
ARG_OF_PERICENTER = 108.2819
MEAN_ANOMALY   = 251.8889

EPHEMERIS_TYPE = 0
CLASSIFICATION_TYPE = U
NORAD_CAT_ID   = 65979
ELEMENT_SET_NO = 999
REV_AT_EPOCH   = 187
BSTAR          = .87209E-4
MEAN_MOTION_DOT = .111E-5
MEAN_MOTION_DDOT = 0

CCSDS_OMM_VERS = 2.0
CREATION_DATE  = 
ORIGINATOR     = 

OBJECT_NAME    = SDA-1670
OBJECT_ID      = 2025-230G
CENTER_NAME    = EARTH
REF_FRAME      = TEME
TIME_SYSTEM    = UTC
MEAN_ELEMENT_THEORY = SGP/SGP4

EPOCH          = 2025-10-29T10:40:31.291104
MEAN_MOTION    = 13.84810008
ECCENTRICITY   = .0003772
INCLINATION    = 81.2983
RA_OF_ASC_NODE = 65.6853
ARG_OF_PERICENTER = 82.2234
MEAN_ANOMALY   = 277.9351

EPHEMERIS_TYPE = 0
CLASSIFICATION_TYPE = U
NORAD_CAT_ID   = 65980
ELEMENT_SET_NO = 999
REV_AT_EPOCH   = 187
BSTAR          = .11811E-3
MEAN_MOTION_DOT = .145E-5
MEAN_MOTION_DDOT = 0

CCSDS_OMM_VERS = 2.0
CREATION_DATE  = 
ORIGINATOR     = 

OBJECT_NAME    = SDA-1671
OBJECT_ID      = 2025-230H
CENTER_NAME    = EARTH
REF_FRAME      = TEME
TIME_SYSTEM    = UTC
MEAN_ELEMENT_THEORY = SGP/SGP4

EPOCH          = 2025-10-29T10:32:50.206272
MEAN_MOTION    = 13.85360242
ECCENTRICITY   = .0004982
INCLINATION    = 81.3010
RA_OF_ASC_NODE = 65.6804
ARG_OF_PERICENTER = 115.1883
MEAN_ANOMALY   = 244.9791

EPHEMERIS_TYPE = 0
CLASSIFICATION_TYPE = U
NORAD_CAT_ID   = 65981
ELEMENT_SET_NO = 999
REV_AT_EPOCH   = 187
BSTAR          = .41098E-4
MEAN_MOTION_DOT = .59E-6
MEAN_MOTION_DDOT = 0

CCSDS_OMM_VERS = 2.0
CREATION_DATE  = 
ORIGINATOR     = 

OBJECT_NAME    = SDA-1672
OBJECT_ID      = 2025-230J
CENTER_NAME    = EARTH
REF_FRAME      = TEME
TIME_SYSTEM    = UTC
MEAN_ELEMENT_THEORY = SGP/SGP4

EPOCH          = 2025-10-29T10:38:31.634016
MEAN_MOTION    = 13.84953136
ECCENTRICITY   = .0004367
INCLINATION    = 81.3017
RA_OF_ASC_NODE = 65.6881
ARG_OF_PERICENTER = 87.9990
MEAN_ANOMALY   = 272.1667

EPHEMERIS_TYPE = 0
CLASSIFICATION_TYPE = U
NORAD_CAT_ID   = 65982
ELEMENT_SET_NO = 999
REV_AT_EPOCH   = 187
BSTAR          = .93448E-4
MEAN_MOTION_DOT = .117E-5
MEAN_MOTION_DDOT = 0

CCSDS_OMM_VERS = 2.0
CREATION_DATE  = 
ORIGINATOR     = 

OBJECT_NAME    = SDA-1673
OBJECT_ID      = 2025-230K
CENTER_NAME    = EARTH
REF_FRAME      = TEME
TIME_SYSTEM    = UTC
MEAN_ELEMENT_THEORY = SGP/SGP4

EPOCH          = 2025-10-29T10:30:10.032768
MEAN_MOTION    = 13.85552564
ECCENTRICITY   = .0005006
INCLINATION    = 81.3015
RA_OF_ASC_NODE = 65.6818
ARG_OF_PERICENTER = 125.6188
MEAN_ANOMALY   = 234.5436

EPHEMERIS_TYPE = 0
CLASSIFICATION_TYPE = U
NORAD_CAT_ID   = 65983
ELEMENT_SET_NO = 999
REV_AT_EPOCH   = 187
BSTAR          = .11627E-3
MEAN_MOTION_DOT = .145E-5
MEAN_MOTION_DDOT = 0

CCSDS_OMM_VERS = 2.0
CREATION_DATE  = 
ORIGINATOR     = 

OBJECT_NAME    = HULIANWANG DIGUI 12A
OBJECT_ID      = 2025-231A
CENTER_NAME    = EARTH
REF_FRAME      = TEME
TIME_SYSTEM    = UTC
MEAN_ELEMENT_THEORY = SGP/SGP4

EPOCH          = 2025-10-29T11:33:09.903168
MEAN_MOTION    = 14.03846278
ECCENTRICITY   = .0006432
INCLINATION    = 50.0008
RA_OF_ASC_NODE = 303.0891
ARG_OF_PERICENTER = 299.9184
MEAN_ANOMALY   = 60.1081

EPHEMERIS_TYPE = 0
CLASSIFICATION_TYPE = U
NORAD_CAT_ID   = 65995
ELEMENT_SET_NO = 999
REV_AT_EPOCH   = 189
BSTAR          = .18932E-3
MEAN_MOTION_DOT = .149E-5
MEAN_MOTION_DDOT = 0

CCSDS_OMM_VERS = 2.0
CREATION_DATE  = 
ORIGINATOR     = 

OBJECT_NAME    = HULIANWANG DIGUI 12B
OBJECT_ID      = 2025-231B
CENTER_NAME    = EARTH
REF_FRAME      = TEME
TIME_SYSTEM    = UTC
MEAN_ELEMENT_THEORY = SGP/SGP4

EPOCH          = 2025-10-29T11:37:20.013888
MEAN_MOTION    = 14.03877104
ECCENTRICITY   = .0009005
INCLINATION    = 49.9995
RA_OF_ASC_NODE = 303.1033
ARG_OF_PERICENTER = 305.5034
MEAN_ANOMALY   = 54.5030

EPHEMERIS_TYPE = 0
CLASSIFICATION_TYPE = U
NORAD_CAT_ID   = 65996
ELEMENT_SET_NO = 999
REV_AT_EPOCH   = 189
BSTAR          = .15861E-3
MEAN_MOTION_DOT = .1E-5
MEAN_MOTION_DDOT = 0

CCSDS_OMM_VERS = 2.0
CREATION_DATE  = 
ORIGINATOR     = 

OBJECT_NAME    = HULIANWANG DIGUI 12C
OBJECT_ID      = 2025-231C
CENTER_NAME    = EARTH
REF_FRAME      = TEME
TIME_SYSTEM    = UTC
MEAN_ELEMENT_THEORY = SGP/SGP4

EPOCH          = 2025-10-29T11:31:41.356128
MEAN_MOTION    = 14.03880628
ECCENTRICITY   = .0007549
INCLINATION    = 49.9972
RA_OF_ASC_NODE = 303.0781
ARG_OF_PERICENTER = 304.8202
MEAN_ANOMALY   = 55.1992

EPHEMERIS_TYPE = 0
CLASSIFICATION_TYPE = U
NORAD_CAT_ID   = 65997
ELEMENT_SET_NO = 999
REV_AT_EPOCH   = 189
BSTAR          = .14286E-3
MEAN_MOTION_DOT = .75E-6
MEAN_MOTION_DDOT = 0

CCSDS_OMM_VERS = 2.0
CREATION_DATE  = 
ORIGINATOR     = 

OBJECT_NAME    = HULIANWANG DIGUI 12D
OBJECT_ID      = 2025-231D
CENTER_NAME    = EARTH
REF_FRAME      = TEME
TIME_SYSTEM    = UTC
MEAN_ELEMENT_THEORY = SGP/SGP4

EPOCH          = 2025-10-29T11:28:29.993952
MEAN_MOTION    = 14.04582545
ECCENTRICITY   = .0006669
INCLINATION    = 50.0000
RA_OF_ASC_NODE = 303.0714
ARG_OF_PERICENTER = 310.8896
MEAN_ANOMALY   = 49.1430

EPHEMERIS_TYPE = 0
CLASSIFICATION_TYPE = U
NORAD_CAT_ID   = 65998
ELEMENT_SET_NO = 999
REV_AT_EPOCH   = 189
BSTAR          = .15513E-3
MEAN_MOTION_DOT = .98E-6
MEAN_MOTION_DDOT = 0

CCSDS_OMM_VERS = 2.0
CREATION_DATE  = 
ORIGINATOR     = 

OBJECT_NAME    = HULIANWANG DIGUI 12E
OBJECT_ID      = 2025-231E
CENTER_NAME    = EARTH
REF_FRAME      = TEME
TIME_SYSTEM    = UTC
MEAN_ELEMENT_THEORY = SGP/SGP4

EPOCH          = 2025-10-29T11:28:52.963392
MEAN_MOTION    = 14.03842013
ECCENTRICITY   = .0008248
INCLINATION    = 50.0019
RA_OF_ASC_NODE = 303.0761
ARG_OF_PERICENTER = 320.7245
MEAN_ANOMALY   = 39.3061

EPHEMERIS_TYPE = 0
CLASSIFICATION_TYPE = U
NORAD_CAT_ID   = 65999
ELEMENT_SET_NO = 999
REV_AT_EPOCH   = 189
BSTAR          = .17613E-3
MEAN_MOTION_DOT = .128E-5
MEAN_MOTION_DDOT = 0

CCSDS_OMM_VERS = 2.0
CREATION_DATE  = 
ORIGINATOR     = 

OBJECT_NAME    = HULIANWANG DIGUI 12F
OBJECT_ID      = 2025-231F
CENTER_NAME    = EARTH
REF_FRAME      = TEME
TIME_SYSTEM    = UTC
MEAN_ELEMENT_THEORY = SGP/SGP4

EPOCH          = 2025-10-29T11:24:49.578912
MEAN_MOTION    = 14.04996378
ECCENTRICITY   = .0005521
INCLINATION    = 50.0060
RA_OF_ASC_NODE = 303.0686
ARG_OF_PERICENTER = 315.8123
MEAN_ANOMALY   = 44.2340

EPHEMERIS_TYPE = 0
CLASSIFICATION_TYPE = U
NORAD_CAT_ID   = 66000
ELEMENT_SET_NO = 999
REV_AT_EPOCH   = 189
BSTAR          = .15019E-3
MEAN_MOTION_DOT = .91E-6
MEAN_MOTION_DDOT = 0

