SDA-1669                
1 65979U 25230F   25302.44070375  .00000111  00000+0  87209-4 0  9992
2 65979  81.3006  65.6818 0005063 108.2819 251.8889 13.85233304  1872
SDA-1670                
1 65980U 25230G   25302.44480661  .00000145  00000+0  11811-3 0  9999
2 65980  81.2983  65.6853 0003772  82.2234 277.9351 13.84810008  1877
SDA-1671                
1 65981U 25230H   25302.43946998  .00000059  00000+0  41098-4 0  9994
2 65981  81.3010  65.6804 0004982 115.1883 244.9791 13.85360242  1879
SDA-1672                
1 65982U 25230J   25302.44342169  .00000117  00000+0  93448-4 0  9997
2 65982  81.3017  65.6881 0004367  87.9990 272.1667 13.84953136  1878
SDA-1673                
1 65983U 25230K   25302.43761612  .00000145  00000+0  11627-3 0  9994
2 65983  81.3015  65.6818 0005006 125.6188 234.5436 13.85552564  1874
HULIANWANG DIGUI 12A    
1 65995U 25231A   25302.48136462  .00000149  00000+0  18932-3 0  9992
2 65995  50.0008 303.0891 0006432 299.9184  60.1081 14.03846278  1897
HULIANWANG DIGUI 12B    
1 65996U 25231B   25302.48425942  .00000100  00000+0  15861-3 0  9992
2 65996  49.9995 303.1033 0009005 305.5034  54.5030 14.03877104  1899
HULIANWANG DIGUI 12C    
1 65997U 25231C   25302.48033977  .00000075  00000+0  14286-3 0  9997
2 65997  49.9972 303.0781 0007549 304.8202  55.1992 14.03880628  1893
HULIANWANG DIGUI 12D    
1 65998U 25231D   25302.47812493  .00000098  00000+0  15513-3 0  9994
2 65998  50.0000 303.0714 0006669 310.8896  49.1430 14.04582545  1891
HULIANWANG DIGUI 12E    
1 65999U 25231E   25302.47839078  .00000128  00000+0  17613-3 0  9990
2 65999  50.0019 303.0761 0008248 320.7245  39.3061 14.03842013  1896
HULIANWANG DIGUI 12F    
1 66000U 25231F   25302.47557383  .00000091  00000+0  15019-3 0  9997
2 66000  50.0060 303.0686 0005521 315.8123  44.2340 14.04996378  1893
